[{"OBJECT_NAME":"IRIDIUM 151","OBJECT_ID":"2017-083E","EPOCH":"2026-03-05T06:32:31.124544","MEAN_MOTION":14.34218126,"ECCENTRICITY":0.00021649,"INCLINATION":86.4019,"RA_OF_ASC_NODE":5.4802,"ARG_OF_PERICENTER":86.6066,"MEAN_ANOMALY":273.5377,"EPHEMERIS_TYPE":0,"CLASSIFICATION_TYPE":"U","NORAD_CAT_ID":43074,"ELEMENT_SET_NO":999,"REV_AT_EPOCH":42924,"BSTAR":1.4041704e-5,"MEAN_MOTION_DOT":5.9e-7,"MEAN_MOTION_DDOT":0},{"OBJECT_NAME":"IRIDIUM 134","OBJECT_ID":"2017-083F","EPOCH":"2026-03-05T14:09:11.075328","MEAN_MOTION":14.34218272,"ECCENTRICITY":0.00020217,"INCLINATION":86.4023,"RA_OF_ASC_NODE":5.3544,"ARG_OF_PERICENTER":84.8346,"MEAN_ANOMALY":275.308,"EPHEMERIS_TYPE":0,"CLASSIFICATION_TYPE":"U","NORAD_CAT_ID":43075,"ELEMENT_SET_NO":999,"REV_AT_EPOCH":42925,"BSTAR":0.00015425896,"MEAN_MOTION_DOT":4.52e-6,"MEAN_MOTION_DDOT":0},{"OBJECT_NAME":"IRIDIUM 137","OBJECT_ID":"2017-083G","EPOCH":"2026-03-05T04:24:39.196800","MEAN_MOTION":14.3421746,"ECCENTRICITY":0.00022241,"INCLINATION":86.4013,"RA_OF_ASC_NODE":5.6145,"ARG_OF_PERICENTER":97.2414,"MEAN_ANOMALY":262.9034,"EPHEMERIS_TYPE":0,"CLASSIFICATION_TYPE":"U","NORAD_CAT_ID":43076,"ELEMENT_SET_NO":999,"REV_AT_EPOCH":42926,"BSTAR":-1.3226735e-5,"MEAN_MOTION_DOT":-1.7e-7,"MEAN_MOTION_DDOT":0},{"OBJECT_NAME":"IRIDIUM 141","OBJECT_ID":"2017-083H","EPOCH":"2026-03-05T12:37:51.798144","MEAN_MOTION":14.34221822,"ECCENTRICITY":0.00022169,"INCLINATION":86.4017,"RA_OF_ASC_NODE":5.3081,"ARG_OF_PERICENTER":82.6584,"MEAN_ANOMALY":277.4864,"EPHEMERIS_TYPE":0,"CLASSIFICATION_TYPE":"U","NORAD_CAT_ID":43077,"ELEMENT_SET_NO":999,"REV_AT_EPOCH":42931,"BSTAR":0.00013467954,"MEAN_MOTION_DOT":3.97e-6,"MEAN_MOTION_DDOT":0},{"OBJECT_NAME":"IRIDIUM 153","OBJECT_ID":"2017-083J","EPOCH":"2026-03-05T04:47:07.340928","MEAN_MOTION":14.34218237,"ECCENTRICITY":0.00021236,"INCLINATION":86.4017,"RA_OF_ASC_NODE":333.9591,"ARG_OF_PERICENTER":80.0236,"MEAN_ANOMALY":280.12,"EPHEMERIS_TYPE":0,"CLASSIFICATION_TYPE":"U","NORAD_CAT_ID":43078,"ELEMENT_SET_NO":999,"REV_AT_EPOCH":43037,"BSTAR":2.1088562e-5,"MEAN_MOTION_DOT":7.9e-7,"MEAN_MOTION_DDOT":0},{"OBJECT_NAME":"IRIDIUM 131","OBJECT_ID":"2017-083K","EPOCH":"2026-03-05T03:57:15.187104","MEAN_MOTION":14.34218291,"ECCENTRICITY":0.00023086,"INCLINATION":86.4023,"RA_OF_ASC_NODE":5.638,"ARG_OF_PERICENTER":85.131,"MEAN_ANOMALY":275.015,"EPHEMERIS_TYPE":0,"CLASSIFICATION_TYPE":"U","NORAD_CAT_ID":43079,"ELEMENT_SET_NO":999,"REV_AT_EPOCH":42919,"BSTAR":0.00013888005,"MEAN_MOTION_DOT":4.09e-6,"MEAN_MOTION_DDOT":0},{"OBJECT_NAME":"IRIDIUM 144","OBJECT_ID":"2018-030A","EPOCH":"2026-03-05T11:38:07.413792","MEAN_MOTION":14.34218016,"ECCENTRICITY":0.0002053,"INCLINATION":86.4015,"RA_OF_ASC_NODE":333.7711,"ARG_OF_PERICENTER":88.2819,"MEAN_ANOMALY":271.8612,"EPHEMERIS_TYPE":0,"CLASSIFICATION_TYPE":"U","NORAD_CAT_ID":43249,"ELEMENT_SET_NO":999,"REV_AT_EPOCH":41527,"BSTAR":2.9061105e-5,"MEAN_MOTION_DOT":1.01e-6,"MEAN_MOTION_DDOT":0},{"OBJECT_NAME":"IRIDIUM 149","OBJECT_ID":"2018-030B","EPOCH":"2026-03-05T05:05:23.403552","MEAN_MOTION":14.34217672,"ECCENTRICITY":0.00020668,"INCLINATION":86.4008,"RA_OF_ASC_NODE":333.8529,"ARG_OF_PERICENTER":82.7041,"MEAN_ANOMALY":277.439,"EPHEMERIS_TYPE":0,"CLASSIFICATION_TYPE":"U","NORAD_CAT_ID":43250,"ELEMENT_SET_NO":999,"REV_AT_EPOCH":41525,"BSTAR":-4.155e-7,"MEAN_MOTION_DOT":1.9e-7,"MEAN_MOTION_DDOT":0},{"OBJECT_NAME":"IRIDIUM 157","OBJECT_ID":"2018-030C","EPOCH":"2026-03-05T05:32:47.398560","MEAN_MOTION":14.34217775,"ECCENTRICITY":0.00022045,"INCLINATION":86.4006,"RA_OF_ASC_NODE":333.8953,"ARG_OF_PERICENTER":85.4704,"MEAN_ANOMALY":274.6744,"EPHEMERIS_TYPE":0,"CLASSIFICATION_TYPE":"U","NORAD_CAT_ID":43251,"ELEMENT_SET_NO":999,"REV_AT_EPOCH":41523,"BSTAR":1.144606e-6,"MEAN_MOTION_DOT":2.3e-7,"MEAN_MOTION_DDOT":0},{"OBJECT_NAME":"IRIDIUM 140","OBJECT_ID":"2018-030D","EPOCH":"2026-03-05T06:00:11.405664","MEAN_MOTION":14.34217823,"ECCENTRICITY":0.00020223,"INCLINATION":86.4015,"RA_OF_ASC_NODE":333.9008,"ARG_OF_PERICENTER":84.2757,"MEAN_ANOMALY":275.8669,"EPHEMERIS_TYPE":0,"CLASSIFICATION_TYPE":"U","NORAD_CAT_ID":43252,"ELEMENT_SET_NO":999,"REV_AT_EPOCH":41529,"BSTAR":1.0634814e-5,"MEAN_MOTION_DOT":5.0e-7,"MEAN_MOTION_DDOT":0},{"OBJECT_NAME":"IRIDIUM 145","OBJECT_ID":"2018-030E","EPOCH":"2026-03-05T10:43:19.042752","MEAN_MOTION":14.34220266,"ECCENTRICITY":0.00018891,"INCLINATION":86.4015,"RA_OF_ASC_NODE":333.7913,"ARG_OF_PERICENTER":93.1007,"MEAN_ANOMALY":267.0405,"EPHEMERIS_TYPE":0,"CLASSIFICATION_TYPE":"U","NORAD_CAT_ID":43253,"ELEMENT_SET_NO":999,"REV_AT_EPOCH":41525,"BSTAR":0.00011334365,"MEAN_MOTION_DOT":3.37e-6,"MEAN_MOTION_DDOT":0},{"OBJECT_NAME":"IRIDIUM 146","OBJECT_ID":"2018-030F","EPOCH":"2026-03-05T05:14:31.288416","MEAN_MOTION":14.34218722,"ECCENTRICITY":0.00020862,"INCLINATION":86.4015,"RA_OF_ASC_NODE":333.8991,"ARG_OF_PERICENTER":89.3582,"MEAN_ANOMALY":270.7852,"EPHEMERIS_TYPE":0,"CLASSIFICATION_TYPE":"U","NORAD_CAT_ID":43254,"ELEMENT_SET_NO":999,"REV_AT_EPOCH":41523,"BSTAR":4.5249613e-5,"MEAN_MOTION_DOT":1.46e-6,"MEAN_MOTION_DDOT":0},{"OBJECT_NAME":"IRIDIUM 148","OBJECT_ID":"2018-030G","EPOCH":"2026-03-05T11:10:43.416192","MEAN_MOTION":14.34218204,"ECCENTRICITY":0.00021847,"INCLINATION":86.4016,"RA_OF_ASC_NODE":333.8373,"ARG_OF_PERICENTER":86.5667,"MEAN_ANOMALY":273.5778,"EPHEMERIS_TYPE":0,"CLASSIFICATION_TYPE":"U","NORAD_CAT_ID":43255,"ELEMENT_SET_NO":999,"REV_AT_EPOCH":41530,"BSTAR":9.3570215e-5,"MEAN_MOTION_DOT":2.82e-6,"MEAN_MOTION_DDOT":0},{"OBJECT_NAME":"IRIDIUM 142","OBJECT_ID":"2018-030H","EPOCH":"2026-03-05T12:05:31.346592","MEAN_MOTION":14.34217707,"ECCENTRICITY":0.00018321,"INCLINATION":86.4006,"RA_OF_ASC_NODE":333.7141,"ARG_OF_PERICENTER":92.9213,"MEAN_ANOMALY":267.2192,"EPHEMERIS_TYPE":0,"CLASSIFICATION_TYPE":"U","NORAD_CAT_ID":43256,"ELEMENT_SET_NO":999,"REV_AT_EPOCH":41527,"BSTAR":-2.836049e-6,"MEAN_MOTION_DOT":1.2e-7,"MEAN_MOTION_DDOT":0},{"OBJECT_NAME":"IRIDIUM 150","OBJECT_ID":"2018-030J","EPOCH":"2026-03-05T11:19:51.371904","MEAN_MOTION":14.34217381,"ECCENTRICITY":0.00020759,"INCLINATION":86.4015,"RA_OF_ASC_NODE":333.8404,"ARG_OF_PERICENTER":85.9233,"MEAN_ANOMALY":274.22,"EPHEMERIS_TYPE":0,"CLASSIFICATION_TYPE":"U","NORAD_CAT_ID":43257,"ELEMENT_SET_NO":999,"REV_AT_EPOCH":41529,"BSTAR":2.1453432e-5,"MEAN_MOTION_DOT":8.0e-7,"MEAN_MOTION_DDOT":0},{"OBJECT_NAME":"IRIDIUM 143","OBJECT_ID":"2018-030K","EPOCH":"2026-03-05T05:51:03.360096","MEAN_MOTION":14.34217769,"ECCENTRICITY":0.00018877,"INCLINATION":86.4014,"RA_OF_ASC_NODE":334.024,"ARG_OF_PERICENTER":89.7765,"MEAN_ANOMALY":270.3647,"EPHEMERIS_TYPE":0,"CLASSIFICATION_TYPE":"U","NORAD_CAT_ID":43258,"ELEMENT_SET_NO":999,"REV_AT_EPOCH":41519,"BSTAR":-1.839931e-6,"MEAN_MOTION_DOT":1.5e-7,"MEAN_MOTION_DDOT":0},{"OBJECT_NAME":"IRIDIUM 161","OBJECT_ID":"2018-047C","EPOCH":"2026-03-05T14:07:45.124608","MEAN_MOTION":14.43284858,"ECCENTRICITY":0.00025366,"INCLINATION":86.4507,"RA_OF_ASC_NODE":131.7965,"ARG_OF_PERICENTER":91.9005,"MEAN_ANOMALY":268.2487,"EPHEMERIS_TYPE":0,"CLASSIFICATION_TYPE":"U","NORAD_CAT_ID":43478,"ELEMENT_SET_NO":999,"REV_AT_EPOCH":41019,"BSTAR":0.00013117474,"MEAN_MOTION_DOT":4.61e-6,"MEAN_MOTION_DDOT":0}]
